MALLIGYONG-1            
1 58400U 23179A   24264.60329674  .00007039  00000+0  32206-3 0  9998
2 58400  97.3871 149.8159 0010438  97.8413 262.4008 15.20781622 46230
